Store #,Address,State,Zip,Phone,store
0,45 Vervalen Street Closter,NJ,07624,(201) 367-9099,Whole Foods Market
1,1558 North Kings Highway Cherry Hill,NJ,08034,(856) 651-5271,Whole Foods Market
2,471 State Route 35 North Middletown,NJ,07701-5036,(732) 758-1688,Whole Foods Market
3,319 Chimney Rock Road Bridgewater,NJ,08805,(732) 584-1960,Whole Foods Market
4,645 Middlesex Avenue Metuchen,NJ,08840,(732) 515-6180,Whole Foods Market
5,633 Broad Street Newark,NJ,07102,(973) 755-5080,Whole Foods Market
6,1933 State Road 35 Spring Lake Wall,NJ,07719,(732) 359-3400,Whole Foods Market
7,1255 Raritan Road Unit 150 Clark,NJ,07066,(732) 381-1010,Whole Foods Market
8,110 Washington Street Morristown,NJ,07960,(973) 385-1900,Whole Foods Market
9,235 Prospect Ave West Orange,NJ,07052,(973) 669-3196,Whole Foods Market
10,905 River Road Edgewater,NJ,07020,(201) 941-4000,Whole Foods Market
11,44 Godwin Ave Ridgewood,NJ,07450,(201) 670-0383,Whole Foods Market
12,222 Main St Rose City,NJ,07940,(973) 822-8444,Whole Foods Market
13,3495 US Route 1 South Princeton,NJ,08540,(609) 799-2919,Whole Foods Market
14,300 Bergen Town Center Paramus,NJ,07652,(201) 226-1244,Whole Foods Market
15,940 Route 73 North Marlton,NJ,08053,(856) 797-1115,Whole Foods Market
16,701 Bloomfield Ave Montclair,NJ,07042,(973) 746-5110,Whole Foods Market
17,2245 Springfield Ave. Millburn - Union,NJ,07088,(908) 688-1455,Whole Foods Market
18,113 Route 9 South Marlboro,NJ,07726,(732) 792-5900,Whole Foods Market
1,191 Main St Lincoln Park,NJ,07035,(973) 633-7878,A & A Fine Foods
1,400 Lincoln Blvd Middlesex,NJ,08846,(732) 563-4001,A & G Fine Foods Incorporated
27,163 Avenue A # 169 Bayonne,NJ,07002,(201) 823-3262,A & P Food Stores
28,19 Belleville Ave Bloomfield,NJ,07003,(973) 429-8754,A & P Food Stores
29,550 Myrtle Ave Boonton,NJ,07005,(973) 394-9570,A & P Food Stores
30,425 Anderson Ave Fairview,NJ,07022,(201) 941-2800,A & P Food Stores
31,289 Bergen Blvd Fairview,NJ,07022,(201) 945-5255,A & P Food Stores
32,59 Outwater Ln Garfield,NJ,07026,(973) 253-0530,A & P Food Stores
33,614 Clinton St Hoboken,NJ,07030,(201) 795-1783,A & P Food Stores
34,80 Market St Kenilworth,NJ,07033,(908) 241-4424,A & P Food Stores
35,453 Valley St Maplewood,NJ,07040,(973) 327-0277,A & P Food Stores
36,501 Valley Rd Montclair,NJ,07043,(973) 746-3235,A & P Food Stores
37,2220 91st St North Bergen,NJ,07047,(201) 662-4700,A & P Food Stores
38,1425 Kennedy Blvd North Bergen,NJ,07047,(201) 864-9300,A & P Food Stores
39,375 Paterson Ave Wallington,NJ,07057,(201) 935-7822,A & P Food Stores
40,177 Washington Valley Rd Warren,NJ,07059,(606) 451-1782,A & P Food Stores
41,52 Westfield Ave Clark,NJ,07066,(732) 388-7334,A & P Food Stores
42,907 Oak Tree Ave South Plainfield,NJ,07080,(908) 791-1600,A & P Food Stores
43,789 Saint George Ave Woodbridge,NJ,07095,(732) 855-9371,A & P Food Stores
44,125 18th St Jersey City,NJ,07310,(201) 217-9228,A & P Food Stores
45,45 De Mercurio Dr Allendale,NJ,07401,(201) 934-9161,A & P Food Stores
46,1926 Union Valley Rd Hewitt,NJ,07421,(973) 657-1330,A & P Food Stores
47,1730 Us Highway 46 Little Falls,NJ,07424,(973) 812-8300,A & P Food Stores
48,125 Franklin Tpke Mahwah,NJ,07430,(201) 512-9332,A & P Food Stores
49,136 Lake Ave Midland Park,NJ,07432,(201) 612-3020,A & P Food Stores
50,5734 Berkshire Valley Rd Oak Ridge,NJ,07438,(973) 208-2255,A & P Food Stores
51,500 State Hwy 23 Pequannock,NJ,07440,(973) 616-7717,A & P Food Stores
52,455 State Rt 23 Sussex,NJ,07461,(973) 875-3256,A & P Food Stores
53,16 High Point Ter Sussex,NJ,07461,(973) 875-5701,A & P Food Stores
54,530 State Rt 515 Vernon,NJ,07462,(973) 764-5350,A & P Food Stores
55,560 Valley Rd Wayne,NJ,07470,(973) 305-1660,A & P Food Stores
56,396 Demarest Ave Closter,NJ,07624,(201) 784-7190,A & P Food Stores
57,4 Memorial Dr Lodi,NJ,07644,(973) 249-5160,A & P Food Stores
58,534 Bergen Blvd Palisades Park,NJ,07650,(201) 944-0104,A & P Food Stores
59,199 Kinderkamack Rd Park Ridge,NJ,07656,(201) 391-9610,A & P Food Stores
60,75 Mayhill St Saddle Brook,NJ,07663,(201) 712-9191,A & P Food Stores
61,216 Old Tappan Rd Westwood,NJ,07675,(201) 664-2954,A & P Food Stores
62,315 Pascack Rd Township Of Washington,NJ,07676,(201) 666-2185,A & P Food Stores
63,520 Chestnut Ridge Rd Woodcliff Lake,NJ,07677,(201) 476-9800,A & P Food Stores
64,State Highway 35 And New Bed Rd Belmar,NJ,07719,(607) 336-5815,A & P Food Stores
65,980 Shrewsbury Ave Eatontown,NJ,07724,(732) 935-0996,A & P Food Stores
66,2101 State Route 35 Holmdel,NJ,07733,(732) 671-7880,A & P Food Stores
67,507 Prospect Ave Little Silver,NJ,07739,(732) 530-7449,A & P Food Stores
68,79 Stone Ln Marlboro,NJ,07746,(732) 946-8911,A & P Food Stores
69,325 State Route 35 Matawan,NJ,07747,(732) 441-7400,A & P Food Stores
70,128 State Route 94 Blairstown,NJ,07825,(908) 362-7440,A & P Food Stores
71,152 State Route 94 Blairstown,NJ,07825,(908) 362-9388,A & P Food Stores
72,431 County Road 513 Califon,NJ,07830,(908) 832-5081,A & P Food Stores
73,125 W Main St Denville,NJ,07834,(973) 586-0601,A & P Food Stores
74,293 Us Highway 206 Flanders,NJ,07836,(973) 252-9360,A & P Food Stores
75,148 Center Grove Rd Randolph,NJ,07869,(973) 442-7950,A & P Food Stores
76,580 N Main St Barnegat,NJ,08005,(609) 660-2163,A & P Food Stores
77,56 Chambersbridge Rd Brick,NJ,08723,(732) 920-6999,A & P Food Stores
78,State Hwy No 35 State Hwy Seaside Heights,NJ,08751,(732) 223-1930,A & P Food Stores
79,State Hwy No 28 Bound Brook,NJ,08805,(732) 223-1930,A & P Food Stores
80,49 Route 22 Clinton,NJ,08809,(908) 735-5833,A & P Food Stores
81,647 State Route 18 East Brunswick,NJ,08816,(732) 651-8611,A & P Food Stores
82,431 County Hwy 513 Flemington,NJ,08822,(908) 832-5081,A & P Food Stores
83,1185 Amboy Ave Edison,NJ,08837,(732) 906-1446,A & P Food Stores
84,45 Pearl St Metuchen,NJ,08840,(732) 549-2973,A & P Food Stores
85,510 Milltown Rd North Brunswick,NJ,08902,(732) 249-1707,A & P Food Stores
19,467 Allwood Rd Clifton,NJ,07012,(973) 594-0590,Acme Markets
20,1319 Magie Ave Union,NJ,07083,(908) 351-4029,Acme Markets
21,2 Garfield Ave Jersey City,NJ,07305,(201) 432-7011,Acme Markets
22,216 Garfield Ave Jersey City,NJ,07305,(201) 432-7011,Acme Markets
23,Shrewsbury Plz Red Bank,NJ,07701,(732) 542-4130,Acme Markets
24,576 River Rd Fair Haven,NJ,07704,(732) 530-7481,Acme Markets
25,3241 Us Highway 9 Freehold,NJ,07728,(732) 863-6501,Acme Markets
26,616 Newman Springs Rd Lincroft,NJ,07738,(732) 936-0668,Acme Markets
27,PO Box 3010 Rumson,NJ,07760,(843) 396-4234,Acme Markets
28,Us Highway 80 And Mount Hope Ave Dover,NJ,07801,(856) 742-8700,Acme Markets
29,343 Mount Hope Ave Dover,NJ,07801,(973) 989-8503,Acme Markets
30,PO Box 3010 Denville,NJ,07834,(843) 396-4234,Acme Markets
31,W Nelson St Newton,NJ,07860,(973) 383-3211,Acme Markets
32,690 Millbrook Ave Randolph,NJ,07869,(973) 895-2694,Acme Markets
33,1252 Springfield Ave New Providence,NJ,07974,(908) 464-6870,Acme Markets
34,9600 Long Beach Blvd Beach Haven,NJ,08008,(609) 492-9718,Acme Markets
35,2200 Mount Holly Rd Burlington,NJ,08016,(609) 386-8627,Acme Markets
36,731 Delsea Dr N Glassboro,NJ,08028,(856) 582-0305,Acme Markets
37,Route 130 And Farnsworth Ave Willingboro,NJ,08046,(609) 324-1246,Acme Markets
38,71 Shawmont Ln Willingboro,NJ,08046,(609) 835-4547,Acme Markets
39,2091 Route 130 Willingboro,NJ,08046,(609) 835-4764,Acme Markets
40,300 S Lenola Rd Maple Shade,NJ,08052,(856) 608-8945,Acme Markets
41,54 W Main St Maple Shade,NJ,08052,(856) 779-9891,Acme Markets
42,18 Broadway Pembtn Twp Medford,NJ,08055,(609) 735-1605,Acme Markets
43,Sharp Run Plz Medford,NJ,08055,(609) 953-7692,Acme Markets
44,115 W Camden Ave Apt F1 Moorestown,NJ,08057,(856) 778-5844,Acme Markets
45,350 Young Ave Moorestown,NJ,08057,(856) 778-5844,Acme Markets
46,119 Chester Ave Moorestown,NJ,08057,(856) 866-0477,Acme Markets
47,251 N Broadway Pennsville,NJ,08070,(323) 551-6884,Acme Markets
48,Pennsville,NJ,08070,(856) 678-4378,Acme Markets
49,1105 Route 130 S Riverton,NJ,08077,(856) 303-1822,Acme Markets
50,515 Cross Keys Rd Sicklerville,NJ,08081,(856) 728-3674,Acme Markets
51,69 Rosalind Cir Sicklerville,NJ,08081,(856) 728-7839,Acme Markets
52,525 Cross Keys Rd Sicklerville,NJ,08081,(856) 728-8791,Acme Markets
53,1619 Center Square Rd Swedesboro,NJ,08085,(856) 467-3564,Acme Markets
54,Village Center Dr Swedesboro,NJ,08085,(856) 467-8936,Acme Markets
55,425 Route 9 S Tuckerton,NJ,08087,(609) 296-0612,Acme Markets
56,631 Mantua Pike Woodbury,NJ,08096,(856) 848-2850,Acme Markets
57,857 Route 45 Woodstown,NJ,08098,(856) 769-8655,Acme Markets
58,Black Horse Pike Audubon,NJ,08106,(609) 645-7553,Acme Markets
59,Black Horse Shopping Ctr Audubon,NJ,08106,(609) 645-7553,Acme Markets
60,110 Black Horse Pike Audubon,NJ,08106,(856) 616-2484,Acme Markets
61,400 E Cuthbert Blvd Collingswood,NJ,08108,(856) 833-1601,Acme Markets
62,400 W Cuthbert Blvd Collingswood,NJ,08108,(856) 858-2226,Acme Markets
63,676 White Horse Pike Absecon,NJ,08201,(609) 407-0823,Acme Markets
64,63rd Landis Ave Cape May Court House,NJ,08210,(609) 263-9006,Acme Markets
65,3428 Simpson Ave Ocean City,NJ,08226,(609) 525-2160,Acme Markets
66,5493 Rinker Cir Sea Isle City,NJ,08243,(609) 263-5270,Acme Markets
67,411 Tudor Ter Somers Point,NJ,08244,(609) 653-2936,Acme Markets
68,63rd And Landis Ave Wildwood,NJ,08260,(609) 263-9006,Acme Markets
69,5300 Park Blvd Wildwood,NJ,08260,(609) 522-7165,Acme Markets
70,5200 Park Blvd Wildwood,NJ,08260,(609) 522-7386,Acme Markets
71,29 Cornwell Dr Bridgeton,NJ,08302,(856) 455-0220,Acme Markets
72,301 S Main Rd Vineland,NJ,08360,(856) 507-1120,Acme Markets
73,6 Cedar Ave Bordentown,NJ,08505,(609) 298-0332,Acme Markets
74,260 Dunns Mill Rd Bordentown,NJ,08505,(609) 298-2014,Acme Markets
75,Us Hwy No 130 Bordentown,NJ,08505,(609) 324-1246,Acme Markets
76,262 Us Highway 130 Bordentown,NJ,08505,(609) 324-4432,Acme Markets
77,Hightstown Rd Princeton Junction,NJ,08550,(609) 452-1421,Acme Markets
78,2091 Us Highway 130 Roebling,NJ,08554,(609) 871-0670,Acme Markets
79,4454 Black Horse Pike Trenton,NJ,08610,(609) 625-5012,Acme Markets
80,3 Highway 33 Trenton,NJ,08619,(609) 587-8801,Acme Markets
81,58 Hughes Ave Trenton,NJ,08619,(609) 587-8801,Acme Markets
82,PO Box 3010 Trenton,NJ,08619,(843) 396-4234,Acme Markets
83,4400 S Broad St Trenton,NJ,08620,(609) 888-9898,Acme Markets
84,953 Highway 33 Trenton,NJ,08690,(609) 588-8021,Acme Markets
85,PO Box 3010 Lakewood,NJ,08701,(843) 396-4234,Acme Markets
86,Main St Taylor Ave Manasquan,NJ,08736,(732) 223-9622,Acme Markets
87,125 Bound Brook Rd Middlesex,NJ,08846,(732) 968-2012,Acme Markets
88,PO Box 3010 Middlesex,NJ,08846,(843) 396-4234,Acme Markets
89,300 Ryders Ln Milltown,NJ,08850,(732) 254-7900,Acme Markets
90,Piscataway,NJ,08854,(732) 968-9136,Acme Markets
517,18 Broadway Browns Mills,NJ,08015,(609) 735-1605,Albertsons
518,PO Box 3010 Cherry Hill,NJ,08034,(843) 396-4234,Albertsons
519,700 Haddonfield Berlin Rd Voorhees,NJ,08043,(856) 782-1167,Albertsons
520,501 E Evesham Rd Runnemede,NJ,08078,(856) 939-5403,Albertsons
521,3845 Bayshore Rd Cape May,NJ,08204,(609) 884-1203,Albertsons
522,1574 N Route 9 Cape May Court House,NJ,08210,(609) 463-1995,Albertsons
485,1705 W Edgar Rd Linden,NJ,07036,0,Aldi
486,1620 Park Ave South Plainfield,NJ,07080,0,Aldi
487,1235 Saint George Ave Roselle,NJ,07203,0,Aldi
488,3057 State Route 35 Hazlet,NJ,07730,0,Aldi
489,6679 Us Highway 9 Howell,NJ,07731,0,Aldi
490,15 State Route 35 N Neptune,NJ,07753,(508) 441-5016,Aldi
491,200 State Route 36 West Long Branch,NJ,07764,(715) 627-1512,Aldi
492,370 Us Highway 46 Rockaway,NJ,07866,(908) 810-4662,Aldi
493,4171 Route 130 Beverly,NJ,08010,0,Aldi
494,471 Route 38 W Maple Shade,NJ,08052,0,Aldi
495,1102 N White Horse Pike Stratford,NJ,08084,0,Aldi
496,875 Mantua Pike Woodbury,NJ,08096,0,Aldi
497,2651 S Delsea Dr Vineland,NJ,08360,0,Aldi
498,1650 N Olden Ave Ext Trenton,NJ,08638,0,Aldi
499,131 Van Zile Rd Brick,NJ,08724,0,Aldi
500,740 Route 37 W Toms River,NJ,08755,(856) 303-7676,Aldi
501,6 Van Dyke Ave New Brunswick,NJ,08901,0,Aldi
2,466 Ocean Ave Jersey City,NJ,07305,(201) 985-1182,American Supermarket
1,143 Bridgeton Pike Mantua,NJ,08051,(856) 223-8975,Ammons Supermarket Llc
2,143 N Main St Mullica Hill,NJ,08062,(856) 223-8975,Ammons Supermarket Llc
1,241 Harrison Ave Harrison,NJ,07029,(973) 483-3937,Anderson Supermarket
2,39 Oraton St Newark,NJ,07104,(973) 483-3937,Anderson Supermarket
1,1 Firethorn Ct Warren,NJ,07059,(908) 604-5948,Aria Foods
2,88 Mountainview Rd Warren,NJ,07059,(908) 604-8667,Aria Foods
3,645 Martinsville Rd Ste 3 Basking Ridge,NJ,07920,(908) 604-9174,Aria Foods
4,296 English Ct Bridgewater,NJ,08807,(908) 725-6363,Aria Foods
2,488 Boulevard Kenilworth,NJ,07033,(908) 276-6866,Associated Food Stores
3,130 Spruce St Newark,NJ,07108,(973) 623-6862,Associated Food Stores
4,265 Ocean Ave Jersey City,NJ,07305,(201) 333-3426,Associated Food Stores
5,543 Shaler Blvd Ridgefield,NJ,07657,(201) 945-7272,Associated Food Stores
7,426 Eagle Rock Ave Roseland,NJ,07068,(973) 403-6795,B & G Foods
8,8 Nicholas Ct Dayton,NJ,08810,(732) 438-8690,B & G Foods
1,226 Jackson St Bridgewater,NJ,08807,(908) 704-8842,Babco Foods International
2,2 Johnson Dr Raritan,NJ,08869,(908) 725-0024,Babco Foods International
1,21 Arctic Pkwy Trenton,NJ,08638,(609) 392-4593,Big Bear Natural Foods
2,17 Arctic Pkwy Trenton,NJ,08638,(609) 392-7122,Big Bear Natural Foods
1,Red Bank Hessian Ave Thorofare,NJ,08086,(856) 853-1507,Bill & Eileen'S Market
70,1001 E Edgar Rd Linden,NJ,07036,(908) 862-9400,Bj'S Wholesale Club
71,300 State Rt 17 East Rutherford,NJ,07073,(201) 438-3031,Bj'S Wholesale Club
72,1904 State Route 35 Oakhurst,NJ,07755,(732) 493-8999,Bj'S Wholesale Club
73,1 Howard Blvd Ledgewood,NJ,07852,(973) 252-0945,Bj'S Wholesale Club
74,62 Haines Ave Berlin,NJ,08009,(856) 768-9015,Bj'S Wholesale Club
75,309 Dultys Ln Burlington,NJ,08016,(609) 239-7000,Bj'S Wholesale Club
76,152 Route 73 Voorhees,NJ,08043,(856) 768-9015,Bj'S Wholesale Club
77,321 Martin Truex Jr Blvd Manahawkin,NJ,08050,(609) 597-0981,Bj'S Wholesale Club
78,131 E Kings Hwy Maple Shade,NJ,08052,(856) 234-9311,Bj'S Wholesale Club
79,200 S Wrangleboro Rd Absecon,NJ,08205,(609) 485-0088,Bj'S Wholesale Club
80,200 Wrangleboro Consumer Sq Mays Landing,NJ,08330,(609) 484-0067,Bj'S Wholesale Club
81,2300 Wrangleboro Rd Mays Landing,NJ,08330,(609) 485-0088,Bj'S Wholesale Club
82,3849 S Delsea Dr Vineland,NJ,08360,(856) 293-0689,Bj'S Wholesale Club
83,900 Marketplace Blvd Trenton,NJ,08691,(609) 581-4506,Bj'S Wholesale Club
84,941 Route 37 W Toms River,NJ,08755,(732) 736-0532,Bj'S Wholesale Club
20,321 Scotland Rd Orange,NJ,07050,(973) 675-2333,Bravo Supermarket
21,1245 W 7th St South Plainfield,NJ,07080,(908) 753-1114,Bravo Supermarket
22,260 Roseville Ave Newark,NJ,07107,(973) 485-6170,Bravo Supermarket
23,67 Broadway Paterson,NJ,07505,(845) 942-5639,Bravo Supermarket
24,76 E 15th St Paterson,NJ,07524,(973) 881-9696,Bravo Supermarket
25,42 W Blackwell St Dover,NJ,07801,(973) 328-0412,Bravo Supermarket
26,36 W Blackwell St Dover,NJ,07801,(973) 607-1980,Bravo Supermarket
27,1567 E State St Trenton,NJ,08609,(609) 587-1339,Bravo Supermarket
28,621 Hamilton St Somerset,NJ,08873,(732) 828-4700,Bravo Supermarket
29,62 Main St South River,NJ,08882,(732) 257-2788,Bravo Supermarket
30,959 Livingston Ave North Brunswick,NJ,08902,(732) 247-6300,Bravo Supermarket
5,602 Berckman St Plainfield,NJ,07062,(908) 222-1048,Brothers Supermarket
6,604 Berckman St Plainfield,NJ,07062,(908) 754-6696,Brothers Supermarket
7,364 15th Ave Newark,NJ,07103,(973) 623-0200,Brothers Supermarket
8,759 Springfield Ave Irvington,NJ,07111,(973) 373-2024,Brothers Supermarket
9,361 Market St Perth Amboy,NJ,08861,(732) 826-0784,Brothers Supermarket
1,965 Magie Ave Union,NJ,07083,(908) 352-5147,Buy Rite Supermarket
12,786 Broadway Bayonne,NJ,07002,(201) 339-1913,C Town
13,607 Bloomfield Ave Bloomfield,NJ,07003,(973) 429-0200,C Town
14,935 S Orange Ave East Orange,NJ,07018,(973) 678-7401,C Town
15,1911 Bergenline Ave Union City,NJ,07087,(201) 863-0125,C Town
16,323 Mount Prospect Ave Newark,NJ,07104,(973) 482-2217,C Town
17,120 Clinton Ave Newark,NJ,07114,(973) 642-3663,C Town
18,574 Jersey Ave Jersey City,NJ,07302,(201) 659-1914,C Town
19,885 Bergen Ave Jersey City,NJ,07306,(201) 795-1740,C Town
20,680 Main St Paterson,NJ,07503,(973) 742-1248,C Town
21,444 20th Ave Paterson,NJ,07513,(973) 278-4899,C Town
22,444 Madison Ave Paterson,NJ,07524,(973) 523-4883,C Town
23,154 State St Hackensack,NJ,07601,(201) 488-3770,C Town
24,272 Maple St Perth Amboy,NJ,08861,(732) 442-8809,C Town
25,81 Luther Ave Perth Amboy,NJ,08861,(732) 442-8809,C Town
26,84 Main St Somerset,NJ,08873,(207) 353-4104,C Town
27,275 George St New Brunswick,NJ,08901,(732) 545-5582,C Town
1,327 London Ave Egg Harbor City,NJ,08215,(609) 965-8646,Cedar Food Market
2,220 N Main St Pleasantville,NJ,08232,(609) 383-8644,Cedar Food Market
3,952 N Main St Pleasantville,NJ,08232,(609) 383-9922,Cedar Food Market
4,500 S Main St Pleasantville,NJ,08232,(609) 646-5267,Cedar Food Market
5,405 N Pennsylvania Ave Atlantic City,NJ,08401,(609) 344-2811,Cedar Food Market
6,1741 Baltic Ave Atlantic City,NJ,08401,(609) 344-7944,Cedar Food Market
7,1125 Arctic Ave Atlantic City,NJ,08401,(609) 347-6660,Cedar Food Market
8,1500 W Riverside Dr Atlantic City,NJ,08401,(609) 348-4388,Cedar Food Market
3,207 Hollywood Ter Long Branch,NJ,07740,(732) 870-8200,Ceriello Fine Foods
4,20 Centenial Ave Beach Haven,NJ,08008,(732) 870-8200,Ceriello Fine Foods
1,210 Anderson Ave Fairview,NJ,07022,(201) 840-8146,Checo Supermarket
43,234 6th Ave W Newark,NJ,07107,(973) 485-3334,City Market
44,723 Newark Ave Jersey City,NJ,07306,(201) 795-5585,City Market
428,325 Promenade Blvd Clifton,NJ,07014,(732) 584-1001,Costco
429,20 Bridewell Pl Clifton,NJ,07014,(973) 779-8715,Costco
430,State Route 10 E Parsippany,NJ,07054,(973) 560-4121,Costco
431,1055 Hudson St Union,NJ,07083,(908) 810-7514,Costco
432,77 Willowbrook Blvd Little Falls,NJ,07424,(973) 812-9125,Costco
433,77 Willowbrook Blvd Wayne,NJ,07470,(973) 812-9125,Costco
434,80 S River St Hackensack,NJ,07601,(201) 487-5471,Costco
435,2361 Asbury Ave Asbury Park,NJ,07712,(732) 481-0020,Costco
436,26361 Asbury Ave Asbury Park,NJ,07712,(732) 481-0022,Costco
437,250 Possom Hollow Rd Freehold,NJ,07728,(732) 992-2053,Costco
438,2835 State Route 35 Hazlet,NJ,07730,(732) 335-3814,Costco
439,156 State Route 10 East Hanover,NJ,07936,(973) 560-4125,Costco
440,245 Stafford Park Blvd Manahawkin,NJ,08050,(609) 978-3977,Costco
441,100 Centerton Rd Mount Laurel,NJ,08054,(515) 967-7701,Costco
442,43 Centerton Rd Mount Laurel,NJ,08054,(856) 359-3650,Costco
443,465 Highway 70 Lakewood,NJ,08701,(732) 451-0830,Costco
444,465 State Hwy No 70 Brick,NJ,08723,(732) 451-0830,Costco
445,Route 88 Brick,NJ,08724,(732) 458-6511,Costco
446,1722 Route 88 Brick,NJ,08724,(732) 840-3400,Costco
447,2210 State Route 27 Edison,NJ,08817,(732) 491-2020,Costco
448,2210 Rt 7 N Edison,NJ,08817,(732) 491-2029,Costco
449,12 Costco Dr Monroe Township,NJ,08831,(732) 605-9280,Costco
450,250 Possum Hollow Rd Monroe Township,NJ,08831,(732) 605-9280,Costco
451,10 Costco Dr Monroe Township,NJ,08831,(732) 656-4211,Costco
452,2210 Route 27 N Perth Amboy,NJ,08861,(732) 491-2049,Costco
3,3920 Ventnor Ave Atlantic City,NJ,08401,(609) 344-2645,Dover Super Market
9,4 Gardner Rd Fairfield,NJ,07004,(973) 227-5445,Eastern Foods
2,218 Dayton Ave Clifton,NJ,07011,(973) 478-1869,Extra Supermarket
3,563 Central Ave East Orange,NJ,07018,(973) 678-7880,Extra Supermarket
4,719 Irvington Ave Maplewood,NJ,07040,(973) 378-3775,Extra Supermarket
5,5505 Palisade Ave West New York,NJ,07093,(201) 866-3013,Extra Supermarket
6,125 Avon Ave Newark,NJ,07108,(973) 504-9696,Extra Supermarket
7,327 Lyons Ave Newark,NJ,07112,(973) 923-1454,Extra Supermarket
8,360 Martin Luther King Jr Dr Jersey City,NJ,07305,(201) 435-5562,Extra Supermarket
9,333 Suydam St New Brunswick,NJ,08901,(732) 418-2299,Extra Supermarket
36,57 State St Washington,NJ,07882,(908) 852-8586,Family Foods
37,740 Morgan St Camden,NJ,08104,(856) 541-1844,Family Foods
1,160 Passaic Ave Passaic,NJ,07055,(973) 773-2660,Fine Fair Supermarket
2,601 4th St Union City,NJ,07087,(352) 375-1094,Fine Fair Supermarket
3,6210 Bergenline Ave West New York,NJ,07093,(201) 868-3716,Fine Fair Supermarket
4,64 Pacific St Newark,NJ,07105,(973) 589-8977,Fine Fair Supermarket
154,1738 Atlantic Ave Atlantic City,NJ,08401,(609) 350-7775,Food 4 Less
5,2160 Lemoine Ave Fort Lee,NJ,07024,(201) 346-1146,Food Emporium
2,202 Broad St Summit,NJ,07901,(908) 277-0440,Food Express
2,201 Commerce Dr Freehold,NJ,07728,(732) 683-0548,Foodarama Supermarkets
3,922 Highway 33 Trenton,NJ,08690,(609) 730-1149,Foodarama Supermarkets
4,34 Stacey Ave Sayreville,NJ,08872,(732) 525-1689,Foodarama Supermarkets
27,215 Blair Rd Avenel,NJ,07001,(732) 596-6000,Foodtown
28,597 Pompton Ave Cedar Grove,NJ,07009,(973) 857-0209,Foodtown
29,1 Schuyler Ave North Arlington,NJ,07031,(201) 991-5691,Foodtown
30,435 N Beverwyck Rd Lake Hiawatha,NJ,07034,(973) 263-9780,Foodtown
31,53 S Jefferson St Orange,NJ,07050,(973) 416-8601,Foodtown
32,510 W Inman Ave Rahway,NJ,07065,(732) 388-6363,Foodtown
33,510 Inman Ave Colonia,NJ,07067,(732) 388-6363,Foodtown
34,211 Morris Ave Springfield,NJ,07081,(973) 376-8899,Foodtown
35,525 Irvington Ave Newark,NJ,07106,(973) 416-6030,Foodtown
36,550 Raritan Rd Roselle,NJ,07203,(908) 245-6470,Foodtown
37,1068 High Mountain Rd Haledon,NJ,07508,(973) 423-5506,Foodtown
38,408 Haledon Ave Haledon,NJ,07508,(973) 942-9384,Foodtown
39,39 Sunset Ave W Red Bank,NJ,07701,(732) 212-0210,Foodtown
40,State Hwy 35 Sea Girt Ave Red Bank,NJ,07701,(732) 223-1930,Foodtown
41,State Hwy No 36 First Ave Red Bank,NJ,07701,(732) 223-1930,Foodtown
42,362 Broad St Red Bank,NJ,07701,(732) 758-0008,Foodtown
43,1560 State Route 35 Asbury Park,NJ,07712,(732) 493-1212,Foodtown
44,2201 Sunset Ave Asbury Park,NJ,07712,(732) 774-9434,Foodtown
45,18th Avenue And State Route Belmar,NJ,07719,(732) 280-2336,Foodtown
46,U S Hwy No 9 Tennent Rd Englishtown,NJ,07726,(908) 322-6410,Foodtown
47,597 Park Ave Freehold,NJ,07728,(732) 462-6143,Foodtown
48,150 W End Ct Long Branch,NJ,07740,(732) 229-9411,Foodtown
49,PO Box 278 Middletown,NJ,07748,(321) 722-0022,Foodtown
50,116 3rd Ave Neptune,NJ,07753,(732) 776-7575,Foodtown
51,75 State Route 36 Port Monmouth,NJ,07758,(732) 787-1180,Foodtown
52,559 E Main St Denville,NJ,07834,(973) 627-1084,Foodtown
53,Main Rd Mount Tabor,NJ,07878,(973) 627-1084,Foodtown
54,Morris County Mall Cedar Knolls,NJ,07927,(973) 539-0655,Foodtown
55,45 S New York Rd Absecon,NJ,08205,(609) 748-0707,Foodtown
56,State Hwy No 35 18th Ave Point Pleasant Beach,NJ,08742,(732) 223-1930,Foodtown
57,505 Richmond Ave Point Pleasant Beach,NJ,08742,(732) 899-5933,Foodtown
58,1 Route 37 W Ste 12 Toms River,NJ,08753,(732) 244-8410,Foodtown
59,1 Route 37 W Toms River,NJ,08753,(732) 244-8410,Foodtown
60,943 Fischer Blvd Toms River,NJ,08753,(732) 270-2205,Foodtown
61,1 Easton Rd Toms River,NJ,08757,(732) 244-8410,Foodtown
62,333 Atlantic City Blvd Toms River,NJ,08757,(732) 269-0122,Foodtown
63,145 Talmadge Rd Edison,NJ,08817,(732) 287-2400,Foodtown
64,Oaktree Road And Wood Ave Edison,NJ,08817,(732) 494-0166,Foodtown
65,611 Bordentown Ave South Amboy,NJ,08879,(732) 721-0276,Foodtown
66,20 Elizabeth St New Brunswick,NJ,08901,(732) 545-3031,Foodtown
1,912 W Bay Ave Barnegat,NJ,08005,(609) 607-9360,Genuardis
2,1632 Kings Hwy N Cherry Hill,NJ,08034,(856) 470-1213,Genuardis
3,710 Route 73 S Marlton,NJ,08053,(856) 489-4374,Genuardis
4,3121 Fire Rd Egg Harbor Township,NJ,08234,(609) 569-8090,Genuardis
158,311 Harrison Ave Harrison,NJ,07029,(973) 483-2116,Harris Teeter
1,237 Martin Luther King Jr Dr Jersey City,NJ,07305,(201) 324-2810,Jaritza Supermarket
2,1085 Summit Ave Jersey City,NJ,07307,(201) 653-3336,Jaritza Supermarket
1,342 Egg Harbor Rd Sewell,NJ,08080,(856) 256-0020,Jw Fine Foods
2,1689 Delsea Dr Woodbury,NJ,08096,(856) 468-1110,Jw Fine Foods
3,28 Harrison St Woodbury,NJ,08096,(914) 637-2513,Jw Fine Foods
2,63 Lefante Dr Bayonne,NJ,07002,(201) 823-0883,Kay Foods
2,2357 Lemoine Ave Fort Lee,NJ,07024,(201) 592-6791,Key Food
1,321 Anderson Ave Fairview,NJ,07022,(201) 945-3160,Kikos Supermarket
2,146 48th St Union City,NJ,07087,(201) 624-1065,Kikos Supermarket
5,115 Hawkins Pl Boonton,NJ,07005,(973) 257-4899,Kings Super Market
6,875 Bloomfield Ave Caldwell,NJ,07006,(973) 244-4546,Kings Super Market
7,120 Linwood Plz Fort Lee,NJ,07024,(201) 363-4912,Kings Super Market
8,1212 Shipyard Ln Hoboken,NJ,07030,(201) 239-4060,Kings Super Market
9,325 River St Hoboken,NJ,07030,(201) 963-2453,Kings Super Market
10,255 S Livingston Ave Livingston,NJ,07039,(973) 535-4940,Kings Super Market
11,159 Maplewood Ave Maplewood,NJ,07040,(973) 761-4628,Kings Super Market
12,650 Valley Rd Montclair,NJ,07043,(973) 509-4828,Kings Super Market
13,300 Pompton Ave Verona,NJ,07044,(973) 571-4188,Kings Super Market
14,700 Lanidex Plz Ste 2 Parsippany,NJ,07054,(973) 463-6300,Kings Super Market
15,700 Koll Executive Ctr Parsippany,NJ,07054,(973) 463-6520,Kings Super Market
16,64 Mountain Blvd Warren,NJ,07059,(908) 226-4988,Kings Super Market
17,778 Morris Tpke Short Hills,NJ,07078,(973) 258-4000,Kings Super Market
18,Short Hills,NJ,07078,(973) 258-4009,Kings Super Market
19,85 Godwin Ave Midland Park,NJ,07432,(201) 251-4808,Kings Super Market
20,112 N Maple Ave Ridgewood,NJ,07450,(201) 493-4927,Kings Super Market
21,201 Berdan Ave Wayne,NJ,07470,(973) 872-4140,Kings Super Market
22,70 Union Ave Cresskill,NJ,07626,(201) 541-4903,Kings Super Market
23,381 Washington Ave Hillsdale,NJ,07642,(201) 722-4696,Kings Super Market
24,784 Old Springfield Ave Summit,NJ,07901,(908) 598-4500,Kings Super Market
25,434 Springfield Ave Berkeley Heights,NJ,07922,(908) 464-4476,Kings Super Market
26,100 Morristown Rd Bernardsville,NJ,07924,(908) 719-4964,Kings Super Market
27,393 Main St Chatham,NJ,07928,(973) 635-4403,Kings Super Market
28,184 Columbia Tpke Florham Park,NJ,07932,(908) 470-4027,Kings Super Market
29,86 E Main St Mendham,NJ,07945,(802) 464-2161,Kings Super Market
30,191 South St Morristown,NJ,07960,(973) 898-4515,Kings Super Market
31,U S Highway 22 And Route 513 Whitehouse,NJ,08888,(908) 470-4022,Kings Super Market
32,531 Us Highway 22 E Whitehouse Station,NJ,08889,(908) 534-6888,Kings Super Market
4,498 Inman Ave Colonia,NJ,07067,(732) 499-7454,Krauszers
5,200 Ocean Ave N Long Branch,NJ,07740,(732) 728-1727,Krauszers
6,317 Broad St Matawan,NJ,07747,(732) 290-1711,Krauszers
7,234 Dorchester Dr Cranbury,NJ,08512,(609) 448-0815,Krauszers
8,660 Herbertsville Rd Brick,NJ,08724,(732) 206-0722,Krauszers
9,424 S Washington Ave Piscataway,NJ,08854,(732) 752-7424,Krauszers
10,Washington Rd Sayreville,NJ,08871,(630) 231-1140,Krauszers
11,81 Main St South River,NJ,08882,(732) 651-1733,Krauszers
91,300 Sicomac Ave Ste 2 Wyckoff,NJ,07481,(201) 891-1212,Market Basket
1,1111 S Orange Ave Newark,NJ,07106,(973) 373-9444,Met Foods
2,503 W Side Ave Jersey City,NJ,07304,(201) 433-8517,Met Foods
20,1280 North Ave Plainfield,NJ,07062,(908) 757-0404,Metal Supermarkets
10,1 Papetti Plz Elizabeth,NJ,07206,(908) 282-7900,Michael Foods
2,213 Burgess Pl Passaic,NJ,07055,(973) 779-6002,New Way Supermarket
3,1061 Bergen St Newark,NJ,07112,(973) 705-3031,New Way Supermarket
4,1065 Bergen St Newark,NJ,07112,(973) 705-3031,New Way Supermarket
5,382 Chancellor Ave Newark,NJ,07112,(973) 926-2396,New Way Supermarket
6,1173 Saint George Ave Roselle,NJ,07203,(908) 241-2120,New Way Supermarket
8,22 Fawnridge Dr Long Valley,NJ,07853,(908) 876-1002,Newly Weds Food
1,16 Waldon Rd Califon,NJ,07830,(908) 832-7183,Occidental International Foods
2,32 Grove St Chester,NJ,07930,(908) 879-2486,Occidental International Foods
3,92 Pleasant Hill Rd Chester,NJ,07930,(908) 879-2942,Occidental International Foods
2,86 19th Ave Newark,NJ,07103,(973) 371-7947,P & T Supermarket
3,324 Clinton Pl Newark,NJ,07112,(973) 391-9660,P & T Supermarket
4,326 Clinton Pl Newark,NJ,07112,(973) 391-9660,P & T Supermarket
1,277 James St Lakewood,NJ,08701,(732) 370-3672,Pal Supermarket
4,200 Milik St Carteret,NJ,07008,(732) 499-3000,Pathmark
5,481 River Rd Edgewater,NJ,07020,(973) 777-7310,Pathmark
6,651 N Stiles St Linden,NJ,07036,(908) 486-9090,Pathmark
7,2465 Us Highway 22 W Union,NJ,07083,(908) 964-8610,Pathmark
8,4100 Park Ave Ste 13 Weehawken,NJ,07086,(201) 867-0750,Pathmark
9,Woodbridge,NJ,07095,(732) 499-3000,Pathmark
10,281 Ferry St # 295 Newark,NJ,07105,(973) 589-3917,Pathmark
11,Washington Ave Belleville,NJ,07109,(630) 231-1140,Pathmark
12,Belleville,NJ,07109,(973) 751-0777,Pathmark
13,726 Washington Ave Belleville,NJ,07109,(973) 751-7808,Pathmark
14,471 Lyons Ave # 79 Irvington,NJ,07111,(973) 923-8633,Pathmark
15,47179 Lyons Ave Irvington,NJ,07111,(973) 923-8633,Pathmark
16,PO Box 5001 Jersey City,NJ,07305,(201) 434-1212,Pathmark
17,25 Kinnelon Rd Ste 13 Butler,NJ,07405,(973) 838-6699,Pathmark
18,17 State St Mahwah,NJ,07430,(201) 934-7710,Pathmark
19,450 Hackensack Ave Hackensack,NJ,07601,(201) 489-7655,Pathmark
20,1933 State Route 35 Ste 120 Belmar,NJ,07719,(732) 449-9503,Pathmark
21,50 State Route 36 Eatontown,NJ,07724,(732) 542-6204,Pathmark
22,100 Schanck Rd Freehold,NJ,07728,(732) 577-9172,Pathmark
23,3020 State Route 35 Hazlet,NJ,07730,(732) 739-2302,Pathmark
24,102 Us Hwy No 9 Marlboro,NJ,07746,(732) 536-7900,Pathmark
25,977 Valley Rd Lng Hi Twp Cedar Knolls,NJ,07927,(908) 647-5262,Pathmark
26,989 Church Rd Cherry Hill,NJ,08002,(856) 482-5120,Pathmark
27,525 Route 72 W Manahawkin,NJ,08050,(609) 978-8510,Pathmark
28,1450 Clements Bridge Rd Woodbury,NJ,08096,(856) 853-5533,Pathmark
29,Woodbury Heights,NJ,08097,(856) 853-0248,Pathmark
30,State Hwy No 40 Washington Ave Pleasantville,NJ,08232,(732) 223-1930,Pathmark
31,5100 Wellington Ave Ventnor City,NJ,08406,(609) 823-5875,Pathmark
32,3495 Us Highway 1 Princeton,NJ,08540,(609) 951-0609,Pathmark
33,Us Highway And Friendship Rd Seaside Park,NJ,08752,(856) 742-8700,Pathmark
34,State Route 18 And Racetrack Rd East Brunswick,NJ,08816,(973) 560-4121,Pathmark
35,101 New Brunswick Ave Perth Amboy,NJ,08861,(732) 826-6044,Pathmark
2,485 Central Ave East Orange,NJ,07018,(973) 673-3485,Perez Supermarket
3,168 Taylor St Orange,NJ,07050,(973) 673-3485,Perez Supermarket
4,712 Broadway Newark,NJ,07104,(973) 482-6044,Perez Supermarket
5,1427 Saint George Ave Roselle,NJ,07203,(908) 620-1317,Perez Supermarket
1,267 Ridge Rd Lyndhurst,NJ,07071,(201) 729-1414,Pickles Olives Etc
2,542 Valley Brook Ave Lyndhurst,NJ,07071,(201) 729-1910,Pickles Olives Etc
12,1 Bloomfield Ave Mountain Lakes,NJ,07046,(973) 541-6620,Pinnacle Foods
13,6 Executive Campus Ste 100 Cherry Hill,NJ,08002,(856) 969-7100,Pinnacle Foods
1,71 Mount Vernon Pl Newark,NJ,07106,(973) 399-7597,Pioneer Supermarket
2,320 Martin Luther King Jr Dr Jersey City,NJ,07305,(201) 432-3929,Pioneer Supermarket
9,298 Passaic St Passaic,NJ,07055,(973) 471-0868,President Supermarket
1075,400 Plaza Dr Secaucus,NJ,07094,(201) 863-1796,Publix
259,801 Blackwood Clementon Rd Clementon,NJ,08021,(856) 783-1281,Save A Lot
260,2780 Mount Ephraim Ave Camden,NJ,08104,(856) 962-7861,Save A Lot
261,3949 Federal St Pennsauken,NJ,08110,(856) 663-9636,Save A Lot
4,149 New Dutch Ln Fairfield,NJ,07004,(973) 461-2370,Schratter Foods
5,333 Fairfield Rd Ste 2 Fairfield,NJ,07004,(973) 461-2400,Schratter Foods
6,108 Preakness Ave Paterson,NJ,07522,(973) 595-0275,Schratter Foods
7,32 Kaufman Ave Little Ferry,NJ,07643,(201) 641-0160,Schratter Foods
19,300 Corporate Dr Mahwah,NJ,07430,(201) 529-5851,Schreiber Food Inc.
5,83 Wilson Ave Newark,NJ,07105,(973) 491-5310,Seabra Supermarkets
6,87 Wilson Ave Newark,NJ,07105,(973) 589-4462,Seabra Supermarkets
7,260 Lafayette St Newark,NJ,07105,(973) 589-8606,Seabra Supermarkets
1,531 S Broad St # 535 Trenton,NJ,08611,(609) 989-7475,Selecto Supermarket
2,533 S Broad St Trenton,NJ,08611,(609) 989-7475,Selecto Supermarket
13,9 Codington St Raritan,NJ,08869,(908) 725-9147,Shamrock Foods
22,900 Madison St Hoboken,NJ,07030,(201) 792-9652,Shoprite
23,637 W Edgar Rd Linden,NJ,07036,(908) 523-0707,Shoprite
24,3115 Kennedy Blvd North Bergen,NJ,07047,(201) 864-2371,Shoprite
25,808 Us Highway 46 Parsippany,NJ,07054,(973) 299-6933,Shoprite
26,76 Central Ave Clark,NJ,07066,(732) 381-7107,Shoprite
27,70 Central Ave Clark,NJ,07066,(732) 388-1464,Shoprite
28,733 Mountain Ave Springfield,NJ,07081,(908) 647-1903,Shoprite
29,727 Morris Tpke Springfield,NJ,07081,(973) 376-3028,Shoprite
30,600 York St Elizabeth,NJ,07201,(800) 492-4173,Shoprite
31,370 Us Highway 22 Hillside,NJ,07205,(908) 810-4662,Shoprite
32,500 S River St Hackensack,NJ,07601,(201) 329-7470,Shoprite
33,459 State Rt 17 Hasbrouck Heights,NJ,07604,(201) 288-4403,Shoprite
34,372 Broadway Hillsdale,NJ,07642,(201) 664-0556,Shoprite
35,175 Main St Lodi,NJ,07644,(973) 365-2287,Shoprite
36,814 River Rd New Milford,NJ,07646,(201) 262-8838,Shoprite
37,246 Livingston St Ste H Northvale,NJ,07647,(201) 767-8182,Shoprite
38,State Hwy No 35 Belmar,NJ,07719,(732) 223-1930,Shoprite
39,1801 State Route 35 Belmar,NJ,07719,(732) 681-0900,Shoprite
40,922 Route 33 Farmingdale,NJ,07727,(732) 462-4700,Shoprite
41,State Hwy No 36 Freehold,NJ,07728,(732) 223-1930,Shoprite
42,36 State St Keyport,NJ,07735,(732) 264-8230,Shoprite
43,318 Lloyd Rd Matawan,NJ,07747,(732) 441-4849,Shoprite
44,1361 State Route 35 Middletown,NJ,07748,(732) 671-9444,Shoprite
45,2200 State Route 66 Neptune,NJ,07753,(732) 775-8824,Shoprite
46,600 York Elizabeth Oakhurst,NJ,07755,(732) 531-8533,Shoprite
47,State Route 36 West Long Branch,NJ,07764,(973) 560-4121,Shoprite
48,314 State Route 15 S Wharton,NJ,07885,(973) 361-8908,Shoprite
49,Shunpike Road And Southern Blvd Madison,NJ,07940,(973) 377-5770,Shoprite
50,Us Highway 130 And Browning Rd Gloucester City,NJ,08030,(856) 742-8700,Shoprite
51,Haddonfield,NJ,08033,(856) 216-0028,Shoprite
52,1445 Brace Rd Cherry Hill,NJ,08034,(856) 216-7720,Shoprite
53,1520 Route 38 Hainesport,NJ,08036,(609) 518-5200,Shoprite
54,State Highway 45 And Parkvil Rd Mantua,NJ,08051,(607) 336-5815,Shoprite
55,307 W Route 70 Marlton,NJ,08053,(856) 983-7370,Shoprite
56,1000 Nixon Dr Mount Laurel,NJ,08054,(856) 439-9700,Shoprite
57,141 Bridgeton Pike Mullica Hill,NJ,08062,(856) 478-6092,Shoprite
58,1310 Fairview Blvd Riverside,NJ,08075,(856) 824-1100,Shoprite
59,740 Route 130 N Riverton,NJ,08077,(856) 303-7676,Shoprite
60,Black Horse Pike And Gordon Ave Williamstown,NJ,08094,(609) 645-7553,Shoprite
61,616 White Horse Pike Absecon,NJ,08201,(609) 641-9673,Shoprite
62,Rr 30 Absecon,NJ,08205,(609) 646-0444,Shoprite
63,Black Horse And Englishcreek Rd Pleasantville,NJ,08232,(609) 645-7553,Shoprite
64,3003 English Creek Ave Egg Harbor Township,NJ,08234,(609) 645-7553,Shoprite
65,1700 Route 47 Rio Grande,NJ,08242,(609) 886-1917,Shoprite
66,9 Bethel Rd Somers Point,NJ,08244,(609) 927-0760,Shoprite
67,Bethel Rd Somers Point,NJ,08244,(609) 927-8133,Shoprite
68,1000 N Pearl St Bridgeton,NJ,08302,(856) 453-1650,Shoprite
69,3600 E Landis Ave Ste 1 Vineland,NJ,08361,(856) 691-0106,Shoprite
70,622 Us Highway 206 Bordentown,NJ,08505,(609) 298-8700,Shoprite
71,2555 Pennington Rd Pennington,NJ,08534,(609) 737-3193,Shoprite
72,3373 Brunswick Pke Plainsboro,NJ,08536,(609) 275-8555,Shoprite
73,1750 N Olden Ave Ext Trenton,NJ,08638,(609) 219-0202,Shoprite
74,1750 N Olden Avenue Ext Trenton,NJ,08638,(609) 219-0202,Shoprite
75,3373 Us Highway 1 Lawrence Township,NJ,08648,(609) 275-8555,Shoprite
76,1235 Highway 33 Trenton,NJ,08690,(334) 566-5990,Shoprite
77,130 Marketplace Blvd Trenton,NJ,08691,(609) 581-5823,Shoprite
78,427429 Atlantic City Blvd Bayville,NJ,08721,(732) 606-0990,Shoprite
79,Us Highway 9 N Lanoka Harbor,NJ,08734,(856) 742-8700,Shoprite
80,611 W Union Ave Bound Brook,NJ,08805,(732) 302-9299,Shoprite
81,1422 W Prospect St East Brunswick,NJ,08816,(732) 238-4646,Shoprite
82,Flemington,NJ,08822,(800) 492-4173,Shoprite
83,1306 Centennial Ave Piscataway,NJ,08854,(732) 302-9299,Shoprite
84,2909 Washington Rd Parlin,NJ,08859,(732) 525-8282,Shoprite
85,365 Convery Blvd Perth Amboy,NJ,08861,(732) 442-1717,Shoprite
86,1207 Us Highway 22 Phillipsburg,NJ,08865,(908) 454-7553,Shoprite
87,435 Elizabeth Ave Somerset,NJ,08873,(732) 356-8703,Shoprite
88,3166 Us Highway 22 Neshanic Station,NJ,08876,(908) 704-3378,Shoprite
89,400 Renaissance Blvd North Brunswick,NJ,08902,(732) 940-6451,Shoprite
407,126 W 1st St Bayonne,NJ,07002,(201) 823-8411,Stop & Shop
408,1 Lefante Dr Bayonne,NJ,07002,(201) 823-9292,Stop & Shop
409,8 Franklin St Bloomfield,NJ,07003,(973) 743-9218,Stop & Shop
410,1189 Broad St Clifton,NJ,07013,(973) 472-7167,Stop & Shop
411,1187 Broad St Clifton,NJ,07013,(973) 473-7766,Stop & Shop
412,160 Kingsland Rd Clifton,NJ,07014,(973) 779-7831,Stop & Shop
413,1511 Us Highway 22 Watchung,NJ,07069,(908) 322-6236,Stop & Shop
414,425 Lewandowski St Lyndhurst,NJ,07071,(201) 438-1747,Stop & Shop
415,Brisbin Avenue And Lewandows St Lyndhurst,NJ,07071,(201) 438-7835,Stop & Shop
416,675 Paterson Ave Ste 7 Carlstadt,NJ,07072,(201) 842-9985,Stop & Shop
417,219 Elm St Westfield,NJ,07090,(908) 232-1292,Stop & Shop
418,647 Newark Ave Elizabeth,NJ,07208,(908) 353-0182,Stop & Shop
419,801 Newark Ave Elizabeth,NJ,07208,(908) 820-9301,Stop & Shop
420,1506 State Rt 23 Butler,NJ,07405,(973) 492-9292,Stop & Shop
421,825 Franklin Ave Franklin Lakes,NJ,07417,(201) 891-8706,Stop & Shop
422,4 Union Ave Haskell,NJ,07420,(973) 616-1181,Stop & Shop
423,175 Franklin Ave Ridgewood,NJ,07450,(201) 444-6222,Stop & Shop
424,130 Skyline Dr Ringwood,NJ,07456,(973) 962-0043,Stop & Shop
425,19 Wyckoff Ave Waldwick,NJ,07463,(201) 652-4055,Stop & Shop
426,1220 Hamburg Turnpike Wayne,NJ,07470,(973) 305-1333,Stop & Shop
427,1506 State Route 23 Wayne,NJ,07470,(973) 492-9292,Stop & Shop
428,87 Berdan Ave Wayne,NJ,07470,(973) 696-4242,Stop & Shop
429,327 Franklin Ave Wyckoff,NJ,07481,(201) 891-3838,Stop & Shop
430,380 W Pleasantview Ave Hackensack,NJ,07601,(201) 342-6030,Stop & Shop
431,33 Vervalen St Closter,NJ,07624,(201) 767-7322,Stop & Shop
432,20 Washington Ave Dumont,NJ,07628,(201) 385-6262,Stop & Shop
433,600 Kinderkamack Road Emerson,NJ,07630,(201) 262-1834,Stop & Shop
434,859 N State Rt 17 Paramus,NJ,07652,(201) 445-4540,Stop & Shop
435,665 American Legion Dr Teaneck,NJ,07666,(201) 287-9400,Stop & Shop
436,34 W Railroad Ave Tenafly,NJ,07670,(201) 894-5111,Stop & Shop
437,5101 State Highway 42 Township Of Washington,NJ,07676,(856) 232-7613,Stop & Shop
438,179 Newman Springs Rd E Shrewsbury,NJ,07702,(732) 212-0210,Stop & Shop
439,1933 State Route 35 Belmar,NJ,07719,(732) 449-9503,Stop & Shop
440,4861 Us Highway 9 Howell,NJ,07731,(732) 901-8882,Stop & Shop
441,2102 State Route 35 Holmdel,NJ,07733,(732) 957-0054,Stop & Shop
442,100 State Route 36 Keyport,NJ,07735,(608) 423-4004,Stop & Shop
443,1137 State Route 34 Matawan,NJ,07747,(732) 290-2382,Stop & Shop
444,1137 Lloyd Road Matawan,NJ,07747,(732) 290-7544,Stop & Shop
445,1 State Hwy No 35 Middletown,NJ,07748,(732) 275-6271,Stop & Shop
446,850 State Hwy No 35 And Twin Brooks Av Middletown,NJ,07748,(732) 671-3323,Stop & Shop
447,35 Twin Brooks Ave Middletown,NJ,07748,(732) 957-9355,Stop & Shop
448,60 Sparta Ave Sparta,NJ,07871,(973) 729-9746,Stop & Shop
449,553 S Finley Ave Basking Ridge,NJ,07920,(908) 221-9400,Stop & Shop
450,404 Springfield Ave Berkeley Heights,NJ,07922,(908) 464-8997,Stop & Shop
451,119 Main St Madison,NJ,07940,(973) 593-8437,Stop & Shop
452,245 Littleton Rd Morris Plains,NJ,07950,(973) 683-0100,Stop & Shop
453,1200 Chews Landing Rd Clementon,NJ,08021,(856) 435-0880,Stop & Shop
454,127 Ark Rd Mount Laurel,NJ,08054,(856) 359-2180,Stop & Shop
455,Town Square Shopping Ctr Camden,NJ,08101,(856) 365-0342,Stop & Shop
456,2275 W County Line Rd Jackson,NJ,08527,(732) 905-3300,Stop & Shop
457,800 Denow Rd Pennington,NJ,08534,(609) 737-9327,Stop & Shop
458,199 E Kennedy Blvd Lakewood,NJ,08701,(732) 905-9717,Stop & Shop
459,1000 Highway 70 Lakewood,NJ,08701,(843) 280-5012,Stop & Shop
460,400 Atlantic City Blvd Beachwood,NJ,08722,(732) 349-7688,Stop & Shop
461,55 Brick Blvd Brick,NJ,08723,(732) 255-9879,Stop & Shop
462,Toms River,NJ,08753,(732) 255-2660,Stop & Shop
463,1214 Route 37 E Toms River,NJ,08753,(732) 341-1327,Stop & Shop
464,351 Route 37 E Toms River,NJ,08753,(732) 341-3620,Stop & Shop
465,2360 Route 9 Toms River,NJ,08755,(732) 905-8180,Stop & Shop
466,765 Jamaica Blvd Toms River,NJ,08757,(732) 244-6217,Stop & Shop
467,400 Lacey Rd Manchester Township,NJ,08759,(732) 350-2326,Stop & Shop
468,108 Lacey Rd Manchester Township,NJ,08759,(732) 849-2002,Stop & Shop
469,485 Georges Rd Dayton,NJ,08810,(732) 274-0686,Stop & Shop
470,24 Summerfield Blvd Dayton,NJ,08810,(732) 329-2935,Stop & Shop
471,1083 Inman Ave Edison,NJ,08820,(908) 769-6173,Stop & Shop
472,334 State Route 31 Flemington,NJ,08822,(908) 782-2977,Stop & Shop
473,3333 State Route 27 Franklin Park,NJ,08823,(732) 398-9074,Stop & Shop
474,Franklin Park,NJ,08823,(732) 422-4425,Stop & Shop
475,34 Concord Ln Monroe Township,NJ,08831,(609) 655-3012,Stop & Shop
476,1049 Us Highway 1 Edison,NJ,08837,(732) 906-5600,Stop & Shop
477,649 Us Highway 206 Hillsborough,NJ,08844,(908) 359-7274,Stop & Shop
478,4095 Us Highway 1 Monmouth Junction,NJ,08852,(732) 329-8488,Stop & Shop
479,581 Stelton Rd Piscataway,NJ,08854,(732) 968-5100,Stop & Shop
480,1278 Us Highway 22 Phillipsburg,NJ,08865,(908) 859-8331,Stop & Shop
481,120 Orlando Dr Raritan,NJ,08869,(908) 725-5223,Stop & Shop
482,1221 Easton Ave Somerset,NJ,08873,(732) 214-8776,Stop & Shop
483,940 Easton Ave Somerset,NJ,08873,(732) 828-0139,Stop & Shop
484,3391 State Route 27 North Brunswick,NJ,08902,(732) 422-0841,Stop & Shop
2,1810 River Ave Camden,NJ,08105,(856) 365-8189,Stop 1 Supermarket
2,711 E 2nd St Plainfield,NJ,07062,(908) 769-3214,Stop One Grocery
3,361 S Orange Ave Newark,NJ,07103,(973) 623-1365,Stop One Grocery
4,243 Stuyvesant Ave Newark,NJ,07106,(973) 372-1540,Stop One Grocery
5,1301 Kaighns Ave Camden,NJ,08103,(856) 964-8826,Stop One Grocery
7,154 Maple Ave South Plainfield,NJ,07080,(908) 561-0411,Sunrise Food
28,609 E Bay Ave Manahawkin,NJ,08050,(609) 597-6360,Super Fresh
29,Rr 38 Mount Holly,NJ,08060,(609) 261-1285,Super Fresh
30,709 S Broadway Pennsville,NJ,08070,(856) 878-0479,Super Fresh
31,800 West Ave Ocean City,NJ,08226,(609) 814-9780,Super Fresh
32,6825 Tilton Rd Egg Harbor Township,NJ,08234,(609) 645-0380,Super Fresh
33,2465 S Broad St Trenton,NJ,08610,(609) 888-4000,Super Fresh
5,10 Schalks Crossing Rd Plainsboro,NJ,08536,(609) 378-0226,Superfresh
4,1216 W Front St Plainfield,NJ,07063,(908) 769-8333,Superior Supermarket
14,64 Princeton Hightstown Rd Princeton Junction,NJ,08550,(609) 452-2354,Supervalu
6,600 Park Ave Ste 1 Plainfield,NJ,07060,(908) 769-9700,Twin City Foods
7,146 Smith St South Plainfield,NJ,07080,(908) 754-6505,Twin City Foods
8,611 Broadway Newark,NJ,07104,(973) 481-9468,Twin City Foods
9,1016 Sherman Ave Elizabeth,NJ,07208,(908) 558-1166,Twin City Foods
10,617623 E Main Bridgewater,NJ,08807,(908) 541-0397,Twin City Foods
11,617 E Main St Bridgewater,NJ,08807,(908) 685-9900,Twin City Foods
1512,3501 Route 42 Blackwood,NJ,08012,(856) 629-4009,Wal-Mart Supercenter
1513,476 Deptford Ave Westville,NJ,08093,(856) 384-2891,Wal-Mart Supercenter
62,Front Brg Red Bank,NJ,07701,(732) 747-3555,Wawa Food Markets
63,204 North Dr Fort Monmouth,NJ,07703,(732) 888-5090,Wawa Food Markets
64,Union Hill Road And Wild Tur Way Englishtown,NJ,07726,(732) 536-9679,Wawa Food Markets
65,319 Us Highway 9 Englishtown,NJ,07726,(732) 972-1198,Wawa Food Markets
66,Us Highway 9 And Franklin Ave Englishtown,NJ,07726,(856) 742-8700,Wawa Food Markets
67,1310 State Route 34 Farmingdale,NJ,07727,(732) 938-6870,Wawa Food Markets
68,909 State Route 33 Freehold,NJ,07728,(732) 866-0096,Wawa Food Markets
69,1181 State Route 36 Hazlet,NJ,07730,(732) 888-0034,Wawa Food Markets
70,204 State Route 35 Hazlet,NJ,07730,(732) 888-5090,Wawa Food Markets
71,4690 Us Highway 9 Howell,NJ,07731,(732) 364-0938,Wawa Food Markets
72,2485 Us Highway 9 Howell,NJ,07731,(732) 364-3771,Wawa Food Markets
73,Ramstown Plz Howell,NJ,07731,(732) 840-1890,Wawa Food Markets
74,Bear Brook Shopping Ctr Marlboro,NJ,07746,(732) 972-4515,Wawa Food Markets
75,177 State Route 34 Matawan,NJ,07747,(732) 335-5500,Wawa Food Markets
76,1206 State Highway 70 E Cherry Hill,NJ,08002,(856) 429-0127,Wawa Food Markets
77,1030 Marlton Pike W Cherry Hill,NJ,08002,(856) 429-1202,Wawa Food Markets
78,843 Cooper Landing Rd Cherry Hill,NJ,08002,(856) 482-1214,Wawa Food Markets
79,100 The Shoppes At Holly Ravi Cherry Hill,NJ,08003,(856) 429-5571,Wawa Food Markets
80,101 Springdale Rd Cherry Hill,NJ,08003,(856) 429-5571,Wawa Food Markets
81,23 Brookview Dr Atco,NJ,08004,(856) 767-7330,Wawa Food Markets
82,669 Jackson Rd Atco,NJ,08004,(856) 767-9111,Wawa Food Markets
83,State Highway 534 And West B Ave Barnegat,NJ,08005,(607) 336-5815,Wawa Food Markets
84,Rr 9 Barnegat,NJ,08005,(609) 698-1812,Wawa Food Markets
85,9th And Central Ave Beach Haven,NJ,08008,(609) 361-2483,Wawa Food Markets
86,13115 Long Beach Blvd Beach Haven,NJ,08008,(609) 492-1960,Wawa Food Markets
87,100 Cross Keys Rd Berlin,NJ,08009,(856) 753-7723,Wawa Food Markets
88,123 S White Horse Pike Berlin,NJ,08009,(856) 767-2342,Wawa Food Markets
89,409 N Route 73 Berlin,NJ,08009,(856) 767-7330,Wawa Food Markets
90,2 Somerdale Rd Blackwood,NJ,08012,(856) 232-4727,Wawa Food Markets
91,7 Juliustown Rd Browns Mills,NJ,08015,(609) 893-5808,Wawa Food Markets
92,1814 Salem Rd Burlington,NJ,08016,(609) 386-5499,Wawa Food Markets
93,917 Erial Rd Clementon,NJ,08021,(856) 346-8780,Wawa Food Markets
94,421 S White Horse Pike Clementon,NJ,08021,(856) 435-4520,Wawa Food Markets
95,Chews Landing Rd Clementon,NJ,08021,(856) 435-5198,Wawa Food Markets
96,2835 Route 206 Apt A Columbus,NJ,08022,(800) 232-9292,Wawa Food Markets
97,71 Lakeview Dr S Gibbsboro,NJ,08026,(856) 783-9812,Wawa Food Markets
98,21 Harmony Rd Gibbstown,NJ,08027,(856) 423-4040,Wawa Food Markets
99,County Highway 610 And 533 Glassboro,NJ,08028,(856) 863-1549,Wawa Food Markets
100,109 Delsea Dr N Glassboro,NJ,08028,(856) 881-8124,Wawa Food Markets
101,1115 Black Horse Pike Glendora,NJ,08029,(856) 228-5016,Wawa Food Markets
102,4 N Stinson Ave Gloucester City,NJ,08030,(856) 456-3508,Wawa Food Markets
103,1317 Market St Gloucester City,NJ,08030,(856) 456-8566,Wawa Food Markets
104,125 Wellwood Ave Bellmawr,NJ,08031,(856) 931-9292,Wawa Food Markets
105,1155 W Browning Rd Bellmawr,NJ,08031,(856) 933-2055,Wawa Food Markets
106,Fairview Ave Hammonton,NJ,08037,(620) 583-6118,Wawa Food Markets
107,1400 Black Horse Pike Hammonton,NJ,08037,(609) 561-6093,Wawa Food Markets
108,12th And Washington Hammonton,NJ,08037,(609) 567-7734,Wawa Food Markets
109,2899 E Evesham Rd Voorhees,NJ,08043,(856) 424-7054,Wawa Food Markets
110,138 Mansion Ave Voorhees,NJ,08043,(856) 429-0285,Wawa Food Markets
111,1702 S Burnt Mill Rd Voorhees,NJ,08043,(856) 435-5276,Wawa Food Markets
112,7 Eagle Ln Willingboro,NJ,08046,(262) 740-1815,Wawa Food Markets
113,101 S Warwick Rd Magnolia,NJ,08049,(856) 435-2550,Wawa Food Markets
114,470 N Main St Manahawkin,NJ,08050,(413) 525-5747,Wawa Food Markets
115,455 Haywood Rd Manahawkin,NJ,08050,(609) 971-7201,Wawa Food Markets
116,500 Bridgeton Pike Mantua,NJ,08051,(856) 468-2524,Wawa Food Markets
117,55 N Forklanding Rd Maple Shade,NJ,08052,(856) 779-2487,Wawa Food Markets
118,27 N Maple Ave Marlton,NJ,08053,(856) 983-8346,Wawa Food Markets
119,270 E Greentree Rd Marlton,NJ,08053,(856) 985-2925,Wawa Food Markets
120,8 Chesterfield Ct Mount Laurel,NJ,08054,(609) 267-1254,Wawa Food Markets
121,200 Larchmont Blvd Mount Laurel,NJ,08054,(856) 231-8962,Wawa Food Markets
122,720 S Church St Mount Laurel,NJ,08054,(856) 234-9624,Wawa Food Markets
123,3763 Church Rd Mount Laurel,NJ,08054,(856) 273-2763,Wawa Food Markets
124,202 Medford Mount Holly Rd Medford,NJ,08055,(609) 654-1363,Wawa Food Markets
125,617 Stokes Rd Medford,NJ,08055,(609) 654-8050,Wawa Food Markets
126,211 Tuckerton Rd Medford,NJ,08055,(609) 654-9475,Wawa Food Markets
127,236 W Main St Moorestown,NJ,08057,(856) 234-2694,Wawa Food Markets
128,602 N Black Horse Pike Mount Ephraim,NJ,08059,(856) 456-3508,Wawa Food Markets
129,798 Woodlane Rd Mount Holly,NJ,08060,(609) 261-1665,Wawa Food Markets
130,1301 State Highway 38 Mount Holly,NJ,08060,(609) 261-9384,Wawa Food Markets
131,76 Springside Rd Mount Holly,NJ,08060,(609) 871-9180,Wawa Food Markets
132,2835 Route 206 Mount Holly,NJ,08060,(800) 232-9292,Wawa Food Markets
133,17 Fort Dix Rd Pemberton,NJ,08068,(609) 894-0103,Wawa Food Markets
134,3 S Woodbury Rd Pitman,NJ,08071,(856) 582-2079,Wawa Food Markets
135,2112 Church Rd Riverton,NJ,08077,(856) 786-2131,Wawa Food Markets
136,600 Cinnaminson St Riverton,NJ,08077,(856) 829-8368,Wawa Food Markets
137,825 N Black Horse Pike Runnemede,NJ,08078,(856) 939-6579,Wawa Food Markets
138,107 Egg Harbor Rd Sewell,NJ,08080,(856) 228-5806,Wawa Food Markets
139,1850 Delsea Dr Sewell,NJ,08080,(856) 468-2202,Wawa Food Markets
140,701 Woodbury Glassboro Rd Sewell,NJ,08080,(856) 468-6235,Wawa Food Markets
141,388 Egg Harbor Rd Sewell,NJ,08080,(856) 589-5482,Wawa Food Markets
142,464 Hurffville Crosskeys Rd Sewell,NJ,08080,(856) 589-5735,Wawa Food Markets
143,1741 Sicklerville Rd Sicklerville,NJ,08081,(856) 227-2004,Wawa Food Markets
144,2700 Sicklerville Rd Sicklerville,NJ,08081,(856) 227-4430,Wawa Food Markets
145,2947 New Brooklyn Erial Rd Sicklerville,NJ,08081,(856) 346-4375,Wawa Food Markets
146,400 Sicklerville Rd Sicklerville,NJ,08081,(856) 728-3308,Wawa Food Markets
147,511 Cross Keys Rd Sicklerville,NJ,08081,(856) 875-7019,Wawa Food Markets
148,600 S White Horse Pike Somerdale,NJ,08083,(856) 435-4102,Wawa Food Markets
149,404 S Warwick Rd Somerdale,NJ,08083,(856) 784-8663,Wawa Food Markets
150,1700 Center Square Rd Swedesboro,NJ,08085,(856) 241-7965,Wawa Food Markets
151,2006 Route 322 Swedesboro,NJ,08085,(856) 467-0919,Wawa Food Markets
152,197 Mathistown Rd Tuckerton,NJ,08087,(609) 296-0576,Wawa Food Markets
153,1201 N Green St Tuckerton,NJ,08087,(609) 296-8573,Wawa Food Markets
154,72 Stage Rd Tuckerton,NJ,08087,(609) 597-8278,Wawa Food Markets
155,State Hwy No 539 Us Hwy No Tuckerton,NJ,08087,(732) 223-1930,Wawa Food Markets
156,2352 Route 206 Vincentown,NJ,08088,(609) 267-1254,Wawa Food Markets
157,436 Oakshade Rd Vincentown,NJ,08088,(609) 268-8282,Wawa Food Markets
158,2075 Route 206 Vincentown,NJ,08088,(609) 859-1614,Wawa Food Markets
159,Vincentown,NJ,08088,(609) 894-9816,Wawa Food Markets
160,1 White Horse Pike Waterford Works,NJ,08089,(856) 767-2287,Wawa Food Markets
161,901 Broadway Westville,NJ,08093,(510) 251-8221,Wawa Food Markets
162,195 Crown Point Rd Westville,NJ,08093,(856) 845-8343,Wawa Food Markets
163,601 Delsea Dr Westville,NJ,08093,(856) 848-5405,Wawa Food Markets
164,Black Horse Pike And Cains M Rd Williamstown,NJ,08094,(609) 645-7553,Wawa Food Markets
165,230 New Brooklyn Rd Williamstown,NJ,08094,(856) 629-1325,Wawa Food Markets
166,1445 S Black Horse Pike Williamstown,NJ,08094,(856) 728-1100,Wawa Food Markets
167,888 Glassboro Rd Williamstown,NJ,08094,(856) 875-4446,Wawa Food Markets
168,State Highway 30 And Pump Br Rd Winslow,NJ,08095,(607) 336-5815,Wawa Food Markets
169,1536 Hurffville Rd Woodbury,NJ,08096,(856) 228-7838,Wawa Food Markets
170,590 N Evergreen Ave Woodbury,NJ,08096,(856) 845-8713,Wawa Food Markets
171,856 Mantua Pike Woodbury Heights,NJ,08097,(856) 853-4380,Wawa Food Markets
172,312 S White Horse Pike Audubon,NJ,08106,(856) 547-9292,Wawa Food Markets
173,800 White Horse Pike Oaklyn,NJ,08107,(856) 858-1543,Wawa Food Markets
174,608 Haddon Ave Collingswood,NJ,08108,(856) 858-4455,Wawa Food Markets
175,668 Haddon Ave Collingswood,NJ,08108,(856) 858-4455,Wawa Food Markets
176,1 Haddon Ave Collingswood,NJ,08108,(856) 858-6660,Wawa Food Markets
177,4325 Haddonfield Rd Merchantville,NJ,08109,(856) 663-1655,Wawa Food Markets
178,4040 Marlton Pike Merchantville,NJ,08109,(856) 663-7154,Wawa Food Markets
179,6524 N Crescent Blvd Merchantville,NJ,08109,(856) 665-1061,Wawa Food Markets
180,Jim Leeds Road And Pitney Rd Absecon,NJ,08201,(609) 652-7972,Wawa Food Markets
181,716 White Horse Pike Absecon,NJ,08201,(609) 965-4045,Wawa Food Markets
182,Us Highway 80 And 7th Ave Absecon,NJ,08201,(856) 742-8700,Wawa Food Markets
183,27th And Ocean Dr Avalon,NJ,08202,(609) 967-3326,Wawa Food Markets
184,3932 Atlantic Brigantine Blvd Brigantine,NJ,08203,(609) 266-2680,Wawa Food Markets
185,813 E Brigantine Ave Brigantine,NJ,08203,(609) 266-5518,Wawa Food Markets
186,Broad Bank Cape May,NJ,08204,(609) 884-6368,Wawa Food Markets
187,1426 Texas Ave Cape May,NJ,08204,(609) 884-6753,Wawa Food Markets
188,3719 Bayshore Rd Cape May,NJ,08204,(609) 886-0004,Wawa Food Markets
189,Rr 9 Absecon,NJ,08205,(609) 652-4036,Wawa Food Markets
190,Us Hwy No 9 Indian Trl Cape May Court House,NJ,08210,(609) 324-1246,Wawa Food Markets
191,U S Hwy No 9 Atlantic Ave Cape May Court House,NJ,08210,(908) 322-6410,Wawa Food Markets
192,2500 U S Hwy No 9 Dennisville,NJ,08214,(609) 624-7970,Wawa Food Markets
193,State Hwy No 47 Main Dennisville,NJ,08214,(732) 223-1930,Wawa Food Markets
194,English Creek Avenue And Bla Pike Egg Harbor City,NJ,08215,(609) 645-5102,Wawa Food Markets
195,Hope Corson Road And Route 5 Marmora,NJ,08223,(609) 390-0357,Wawa Food Markets
196,30 Route Us 9 S Marmora,NJ,08223,(609) 390-9510,Wawa Food Markets
197,4th St Ocean City,NJ,08226,(609) 391-9271,Wawa Food Markets
198,34th And Haven Ave Ocean City,NJ,08226,(609) 398-6080,Wawa Food Markets
199,1250 West Ave Ocean City,NJ,08226,(609) 398-7754,Wawa Food Markets
200,1 Hope Corson Rd Ocean View,NJ,08230,(609) 390-1275,Wawa Food Markets
201,2500 N Route 9 Ocean View,NJ,08230,(609) 624-7970,Wawa Food Markets
202,Route 9 And Sea Isle Blvd Ocean View,NJ,08230,(609) 624-9379,Wawa Food Markets
203,513 W Delilah Rd Pleasantville,NJ,08232,(609) 641-2428,Wawa Food Markets
204,2428 Tilton Rd Egg Harbor Township,NJ,08234,(609) 641-2069,Wawa Food Markets
205,38th And Landis Ave Sea Isle City,NJ,08243,(609) 263-2330,Wawa Food Markets
206,New Road And Rhode Island Ave Somers Point,NJ,08244,(609) 653-1651,Wawa Food Markets
207,100 Shore Rd Apt A7 Somers Point,NJ,08244,(609) 653-6150,Wawa Food Markets
208,Ocean Heights Avenue And New Rd Somers Point,NJ,08244,(609) 653-8922,Wawa Food Markets
209,3rd And 94th Ave Stone Harbor,NJ,08247,(609) 368-3265,Wawa Food Markets
210,1515 Bayshore Rd Villas,NJ,08251,(609) 889-8975,Wawa Food Markets
211,404 E 4th Ave # 3 Wildwood,NJ,08260,(609) 522-2403,Wawa Food Markets
212,4th And New Jersey Ave Wildwood,NJ,08260,(609) 522-2403,Wawa Food Markets
213,N Station Avenue And Pacific Ave Wildwood,NJ,08260,(609) 522-7588,Wawa Food Markets
214,410 W Rio Grande Ave Wildwood,NJ,08260,(609) 729-6339,Wawa Food Markets
215,418 W Rio Grande Ave Wildwood,NJ,08260,(609) 729-6339,Wawa Food Markets
216,1090 Highway 77 Bridgeton,NJ,08302,(856) 459-3104,Wawa Food Markets
217,171 Wheat Rd Buena,NJ,08310,(856) 692-2901,Wawa Food Markets
218,731 S Harding Hwy Buena,NJ,08310,(856) 697-8484,Wawa Food Markets
219,3904 Route 47 Delmont,NJ,08314,(856) 785-0706,Wawa Food Markets
220,2515 Delsea Dr Franklinville,NJ,08322,(856) 694-1149,Wawa Food Markets
221,4262 Black Horse Pike Mays Landing,NJ,08330,(609) 484-2424,Wawa Food Markets
222,300 Route 50 Mays Landing,NJ,08330,(609) 625-8211,Wawa Food Markets
223,5201 Harding Hwy Mays Landing,NJ,08330,(609) 909-0418,Wawa Food Markets
224,1711 W Main St Millville,NJ,08332,(856) 327-0655,Wawa Food Markets
225,2105 N 2nd St Millville,NJ,08332,(856) 327-5349,Wawa Food Markets
226,640 W Main St Millville,NJ,08332,(856) 327-7400,Wawa Food Markets
227,317 N 2nd St Millville,NJ,08332,(856) 327-9261,Wawa Food Markets
228,Main Cedar Millville,NJ,08332,(856) 825-5379,Wawa Food Markets
229,1502 Central Ave Minotola,NJ,08341,(856) 697-3264,Wawa Food Markets
230,4486 Harding Hwy Newfield,NJ,08344,(856) 694-1809,Wawa Food Markets
231,1711 Main St Port Norris,NJ,08349,(856) 327-0493,Wawa Food Markets
232,501 N Delsea Dr Vineland,NJ,08360,(856) 507-5950,Wawa Food Markets
233,601 S Delsea Dr Vineland,NJ,08360,(856) 507-5950,Wawa Food Markets
234,2802 S Delsea Dr Vineland,NJ,08360,(856) 507-9243,Wawa Food Markets
235,Main Road And Sherman Ave Vineland,NJ,08360,(856) 691-3866,Wawa Food Markets
236,40 S State St Vineland,NJ,08360,(856) 694-4490,Wawa Food Markets
237,44 S Main Rd Vineland,NJ,08360,(856) 696-8472,Wawa Food Markets
238,10 W Chestnut Ave Vineland,NJ,08360,(856) 696-9276,Wawa Food Markets
239,N East Boulevard And Oak Rd Vineland,NJ,08360,(856) 794-9660,Wawa Food Markets
240,2615 E Chestnut Ave Vineland,NJ,08361,(856) 507-8990,Wawa Food Markets
241,9300 Ventnor Ave Margate City,NJ,08402,(609) 822-5167,Wawa Food Markets
242,S Little Rock Avenue And Ventn Ave Ventnor City,NJ,08406,(609) 822-1196,Wawa Food Markets
243,1076 Us Highway 206 And Dunns Mil Rd Bordentown,NJ,08505,(609) 291-2081,Wawa Food Markets
244,548 Monmouth Rd Millstone Township,NJ,08510,(609) 259-9878,Wawa Food Markets
245,480 Broad St Florence,NJ,08518,(609) 499-9106,Wawa Food Markets
246,104 Hickory Corner Rd Hightstown,NJ,08520,(609) 448-9552,Wawa Food Markets
247,1120 E Veterans Hwy Jackson,NJ,08527,(732) 364-7323,Wawa Food Markets
248,165 S New Prospect Rd Jackson,NJ,08527,(732) 367-5807,Wawa Food Markets
249,9 Bennetts Mills Rd Jackson,NJ,08527,(732) 928-3457,Wawa Food Markets
250,10 Manhattan St Jackson,NJ,08527,(732) 928-4333,Wawa Food Markets
251,140 University Pl Princeton,NJ,08540,(609) 921-3677,Wawa Food Markets
252,Us Highway 206 And Us Highwa Princeton,NJ,08540,(856) 742-8700,Wawa Food Markets
253,210 Georgetown Wrightstown Rd Wrightstown,NJ,08562,(609) 723-5665,Wawa Food Markets
254,Klockner Rd Trenton,NJ,08610,(609) 586-6616,Wawa Food Markets
255,1502 Liberty St Trenton,NJ,08629,(609) 396-9074,Wawa Food Markets
256,9 Jumping Brook Dr Lakewood,NJ,08701,(732) 363-6571,Wawa Food Markets
257,County Line And Lakewood Rd Lakewood,NJ,08701,(732) 364-4452,Wawa Food Markets
258,220 Atlantic City Blvd Bayville,NJ,08721,(732) 237-3050,Wawa Food Markets
259,37 Staten Ave Bayville,NJ,08721,(732) 240-5728,Wawa Food Markets
260,Us Highway 9 And Bay Blvd Bayville,NJ,08721,(856) 742-8700,Wawa Food Markets
261,595 Brick Blvd Brick,NJ,08723,(732) 451-0259,Wawa Food Markets
262,100 Drum Point Rd Brick,NJ,08723,(732) 477-5938,Wawa Food Markets
263,6 Lanes Mill Rd Brick,NJ,08724,(732) 458-6721,Wawa Food Markets
264,744 Lacey Rd Forked River,NJ,08731,(609) 693-6941,Wawa Food Markets
265,State Highway 37 And Commonw Blvd Lakehurst,NJ,08733,(607) 336-5815,Wawa Food Markets
266,408 Route 70 Lakehurst,NJ,08733,(732) 657-2120,Wawa Food Markets
267,701 Us Highway 9 Lanoka Harbor,NJ,08734,(410) 745-9819,Wawa Food Markets
268,2432 Highway 35 Manasquan,NJ,08736,(732) 528-9734,Wawa Food Markets
269,State Highway 37 E And Vaugh Ave Toms River,NJ,08753,(607) 336-5815,Wawa Food Markets
270,1166 Fischer Blvd Toms River,NJ,08753,(732) 288-7900,Wawa Food Markets
271,1725 Hooper Ave Toms River,NJ,08753,(732) 864-1701,Wawa Food Markets
272,Us Highway 9 And Stevens Rd Toms River,NJ,08753,(856) 742-8700,Wawa Food Markets
273,94 Route 70 Toms River,NJ,08755,(732) 905-4620,Wawa Food Markets
274,94 Easton Rd Toms River,NJ,08757,(732) 905-4621,Wawa Food Markets
275,455 Route 9 Waretown,NJ,08758,(845) 364-7217,Wawa Food Markets
276,109 School Ln Manchester Township,NJ,08759,(732) 350-1754,Wawa Food Markets
277,350 Georges Rd Dayton,NJ,08810,(732) 274-0568,Wawa Food Markets
278,426 Ryders Ln East Brunswick,NJ,08816,(732) 432-7780,Wawa Food Markets
279,30 State Route 31 Flemington,NJ,08822,(908) 284-1227,Wawa Food Markets
280,337 Applegarth Rd Monroe Township,NJ,08831,(609) 395-9275,Wawa Food Markets
281,Rr 5 Hillsborough,NJ,08844,(609) 924-4935,Wawa Food Markets
282,800 Us Highway 202 Neshanic Station,NJ,08853,(908) 806-0553,Wawa Food Markets
283,1453 State Route 18 Old Bridge,NJ,08857,(732) 360-3020,Wawa Food Markets
284,656 Old Bridge Tpke South River,NJ,08882,(732) 254-2106,Wawa Food Markets
285,17 Division St South River,NJ,08882,(732) 390-1422,Wawa Food Markets
286,1910 State Route 27 North Brunswick,NJ,08902,(732) 846-7365,Wawa Food Markets
4,15 Woodbridge Ctr Dr Woodbridge,NJ,07095,(732) 596-3200,Wegmans
5,1104 State Route 35 Asbury Park,NJ,07712,(732) 695-7045,Wegmans
6,55 Us Highway 9 Englishtown,NJ,07726,(732) 625-4145,Wegmans
7,2100 State Hwy No 70 W Cherry Hill,NJ,08002,(856) 488-2700,Wegmans
8,PO Box 4276 Cherry Hill,NJ,08034,(856) 488-8680,Wegmans
9,2 Centerton Rd Mount Laurel,NJ,08054,(856) 439-7335,Wegmans
10,Mount Laurel,NJ,08054,(856) 439-7344,Wegmans
11,Moorestown,NJ,08057,(856) 235-0088,Wegmans
12,240 Nassau Park Blvd Princeton,NJ,08540,(609) 919-9300,Wegmans
13,724 Us Highway 202 Bridgewater,NJ,08807,(908) 243-9600,Wegmans
